[{"OBJECT_NAME":"STARLINK-5006","OBJECT_ID":"2023-014AH","EPOCH":"2025-08-06T20:13:10.570944","MEAN_MOTION":14.98324479,"ECCENTRICITY":0.00038167,"INCLINATION":69.9984,"RA_OF_ASC_NODE":266.0185,"ARG_OF_PERICENTER":265.0755,"MEAN_ANOMALY":94.9968,"EPHEMERIS_TYPE":0,"CLASSIFICATION_TYPE":"U","NORAD_CAT_ID":55422,"ELEMENT_SET_NO":999,"REV_AT_EPOCH":13938,"BSTAR":0.00017010925,"MEAN_MOTION_DOT":1.937e-5,"MEAN_MOTION_DDOT":0},{"OBJECT_NAME":"STARLINK-5068","OBJECT_ID":"2023-014AJ","EPOCH":"2025-08-06T21:07:14.737152","MEAN_MOTION":14.98330936,"ECCENTRICITY":0.00040532,"INCLINATION":69.9983,"RA_OF_ASC_NODE":266.1541,"ARG_OF_PERICENTER":269.2672,"MEAN_ANOMALY":90.8023,"EPHEMERIS_TYPE":0,"CLASSIFICATION_TYPE":"U","NORAD_CAT_ID":55423,"ELEMENT_SET_NO":999,"REV_AT_EPOCH":13938,"BSTAR":9.146986e-6,"MEAN_MOTION_DOT":1.6e-7,"MEAN_MOTION_DDOT":0},{"OBJECT_NAME":"STARLINK-5615","OBJECT_ID":"2023-014AL","EPOCH":"2025-08-06T20:55:13.691136","MEAN_MOTION":14.98336347,"ECCENTRICITY":0.00038118,"INCLINATION":69.9984,"RA_OF_ASC_NODE":266.1266,"ARG_OF_PERICENTER":268.6218,"MEAN_ANOMALY":91.4504,"EPHEMERIS_TYPE":0,"CLASSIFICATION_TYPE":"U","NORAD_CAT_ID":55425,"ELEMENT_SET_NO":999,"REV_AT_EPOCH":13938,"BSTAR":-4.1295121e-5,"MEAN_MOTION_DOT":-5.86e-6,"MEAN_MOTION_DDOT":0},{"OBJECT_NAME":"STARLINK-5638","OBJECT_ID":"2023-014AM","EPOCH":"2025-08-06T13:18:33.708384","MEAN_MOTION":14.98369228,"ECCENTRICITY":0.0003672,"INCLINATION":69.9979,"RA_OF_ASC_NODE":267.0246,"ARG_OF_PERICENTER":264.8181,"MEAN_ANOMALY":95.2559,"EPHEMERIS_TYPE":0,"CLASSIFICATION_TYPE":"U","NORAD_CAT_ID":55426,"ELEMENT_SET_NO":999,"REV_AT_EPOCH":13933,"BSTAR":0.00039297408,"MEAN_MOTION_DOT":4.604e-5,"MEAN_MOTION_DDOT":0},{"OBJECT_NAME":"STARLINK-5073","OBJECT_ID":"2023-014AN","EPOCH":"2025-08-06T13:00:35.673120","MEAN_MOTION":14.98309035,"ECCENTRICITY":0.00031634,"INCLINATION":69.9983,"RA_OF_ASC_NODE":266.9836,"ARG_OF_PERICENTER":270.7377,"MEAN_ANOMALY":89.342,"EPHEMERIS_TYPE":0,"CLASSIFICATION_TYPE":"U","NORAD_CAT_ID":55427,"ELEMENT_SET_NO":999,"REV_AT_EPOCH":13933,"BSTAR":0.00049098924,"MEAN_MOTION_DOT":5.767e-5,"MEAN_MOTION_DDOT":0},{"OBJECT_NAME":"STARLINK-5064","OBJECT_ID":"2023-014AP","EPOCH":"2025-08-06T19:55:09.808896","MEAN_MOTION":14.98327929,"ECCENTRICITY":0.00033855,"INCLINATION":69.998,"RA_OF_ASC_NODE":266.3809,"ARG_OF_PERICENTER":270.4393,"MEAN_ANOMALY":89.6379,"EPHEMERIS_TYPE":0,"CLASSIFICATION_TYPE":"U","NORAD_CAT_ID":55428,"ELEMENT_SET_NO":999,"REV_AT_EPOCH":13937,"BSTAR":5.4480792e-5,"MEAN_MOTION_DOT":5.57e-6,"MEAN_MOTION_DDOT":0},{"OBJECT_NAME":"STARLINK-5645","OBJECT_ID":"2023-014AQ","EPOCH":"2025-08-06T13:12:34.995456","MEAN_MOTION":14.98320828,"ECCENTRICITY":0.00036353,"INCLINATION":69.9983,"RA_OF_ASC_NODE":267.0113,"ARG_OF_PERICENTER":268.3115,"MEAN_ANOMALY":91.7628,"EPHEMERIS_TYPE":0,"CLASSIFICATION_TYPE":"U","NORAD_CAT_ID":55429,"ELEMENT_SET_NO":999,"REV_AT_EPOCH":13933,"BSTAR":6.3155986e-5,"MEAN_MOTION_DOT":6.6e-6,"MEAN_MOTION_DDOT":0},{"OBJECT_NAME":"STARLINK-5642","OBJECT_ID":"2023-014AR","EPOCH":"2025-08-06T14:37:01.343712","MEAN_MOTION":14.98322784,"ECCENTRICITY":0.00032225,"INCLINATION":69.999,"RA_OF_ASC_NODE":286.6743,"ARG_OF_PERICENTER":266.7047,"MEAN_ANOMALY":93.3743,"EPHEMERIS_TYPE":0,"CLASSIFICATION_TYPE":"U","NORAD_CAT_ID":55430,"ELEMENT_SET_NO":999,"REV_AT_EPOCH":13885,"BSTAR":9.9805023e-5,"MEAN_MOTION_DOT":1.098e-5,"MEAN_MOTION_DDOT":0},{"OBJECT_NAME":"STARLINK-5643","OBJECT_ID":"2023-014AS","EPOCH":"2025-08-06T13:24:36.433728","MEAN_MOTION":14.98330221,"ECCENTRICITY":0.00038246,"INCLINATION":69.9981,"RA_OF_ASC_NODE":267.0401,"ARG_OF_PERICENTER":269.5785,"MEAN_ANOMALY":90.4935,"EPHEMERIS_TYPE":0,"CLASSIFICATION_TYPE":"U","NORAD_CAT_ID":55431,"ELEMENT_SET_NO":999,"REV_AT_EPOCH":13933,"BSTAR":1.7510326e-5,"MEAN_MOTION_DOT":1.16e-6,"MEAN_MOTION_DDOT":0},{"OBJECT_NAME":"STARLINK-5637","OBJECT_ID":"2023-014AT","EPOCH":"2025-08-06T21:13:48.925056","MEAN_MOTION":14.98331179,"ECCENTRICITY":0.00036753,"INCLINATION":69.9988,"RA_OF_ASC_NODE":286.0302,"ARG_OF_PERICENTER":268.7832,"MEAN_ANOMALY":91.2906,"EPHEMERIS_TYPE":0,"CLASSIFICATION_TYPE":"U","NORAD_CAT_ID":55432,"ELEMENT_SET_NO":999,"REV_AT_EPOCH":13889,"BSTAR":8.563179e-6,"MEAN_MOTION_DOT":9.0e-8,"MEAN_MOTION_DDOT":0},{"OBJECT_NAME":"STARLINK-5570","OBJECT_ID":"2023-014AU","EPOCH":"2025-08-06T14:31:00.530400","MEAN_MOTION":14.98330147,"ECCENTRICITY":0.00036109,"INCLINATION":69.999,"RA_OF_ASC_NODE":286.6597,"ARG_OF_PERICENTER":268.8185,"MEAN_ANOMALY":91.2561,"EPHEMERIS_TYPE":0,"CLASSIFICATION_TYPE":"U","NORAD_CAT_ID":55433,"ELEMENT_SET_NO":999,"REV_AT_EPOCH":13885,"BSTAR":-7.585886e-6,"MEAN_MOTION_DOT":-1.84e-6,"MEAN_MOTION_DDOT":0},{"OBJECT_NAME":"STARLINK-5621","OBJECT_ID":"2023-014AV","EPOCH":"2025-08-06T21:25:36.043392","MEAN_MOTION":14.98330685,"ECCENTRICITY":0.00031979,"INCLINATION":69.9993,"RA_OF_ASC_NODE":286.0593,"ARG_OF_PERICENTER":269.9789,"MEAN_ANOMALY":90.1004,"EPHEMERIS_TYPE":0,"CLASSIFICATION_TYPE":"U","NORAD_CAT_ID":55434,"ELEMENT_SET_NO":999,"REV_AT_EPOCH":13889,"BSTAR":-2.3456336e-5,"MEAN_MOTION_DOT":-3.73e-6,"MEAN_MOTION_DDOT":0},{"OBJECT_NAME":"STARLINK-5626","OBJECT_ID":"2023-014AW","EPOCH":"2025-08-06T21:13:34.710528","MEAN_MOTION":14.98330283,"ECCENTRICITY":0.00037477,"INCLINATION":69.9992,"RA_OF_ASC_NODE":286.0309,"ARG_OF_PERICENTER":269.8168,"MEAN_ANOMALY":90.2561,"EPHEMERIS_TYPE":0,"CLASSIFICATION_TYPE":"U","NORAD_CAT_ID":55435,"ELEMENT_SET_NO":999,"REV_AT_EPOCH":13889,"BSTAR":-8.632612e-6,"MEAN_MOTION_DOT":-1.96e-6,"MEAN_MOTION_DDOT":0},{"OBJECT_NAME":"STARLINK-5640","OBJECT_ID":"2023-014AX","EPOCH":"2025-08-06T21:31:36.687360","MEAN_MOTION":14.98330078,"ECCENTRICITY":0.00035181,"INCLINATION":69.9993,"RA_OF_ASC_NODE":286.0739,"ARG_OF_PERICENTER":269.3437,"MEAN_ANOMALY":90.7319,"EPHEMERIS_TYPE":0,"CLASSIFICATION_TYPE":"U","NORAD_CAT_ID":55436,"ELEMENT_SET_NO":999,"REV_AT_EPOCH":13889,"BSTAR":-1.8920489e-5,"MEAN_MOTION_DOT":-3.19e-6,"MEAN_MOTION_DDOT":0},{"OBJECT_NAME":"STARLINK-5074","OBJECT_ID":"2023-014AZ","EPOCH":"2025-08-06T11:30:04.951008","MEAN_MOTION":14.98330238,"ECCENTRICITY":0.00040123,"INCLINATION":69.998,"RA_OF_ASC_NODE":246.9054,"ARG_OF_PERICENTER":269.1937,"MEAN_ANOMALY":90.8762,"EPHEMERIS_TYPE":0,"CLASSIFICATION_TYPE":"U","NORAD_CAT_ID":55438,"ELEMENT_SET_NO":999,"REV_AT_EPOCH":13982,"BSTAR":1.88869e-5,"MEAN_MOTION_DOT":1.32e-6,"MEAN_MOTION_DDOT":0},{"OBJECT_NAME":"STARLINK-5634","OBJECT_ID":"2023-014BA","EPOCH":"2025-08-06T21:37:37.205184","MEAN_MOTION":14.98329936,"ECCENTRICITY":0.00040335,"INCLINATION":69.9994,"RA_OF_ASC_NODE":286.0899,"ARG_OF_PERICENTER":269.1555,"MEAN_ANOMALY":90.9142,"EPHEMERIS_TYPE":0,"CLASSIFICATION_TYPE":"U","NORAD_CAT_ID":55439,"ELEMENT_SET_NO":999,"REV_AT_EPOCH":13889,"BSTAR":-1.3881389e-5,"MEAN_MOTION_DOT":-2.59e-6,"MEAN_MOTION_DDOT":0},{"OBJECT_NAME":"STARLINK-5699","OBJECT_ID":"2023-015A","EPOCH":"2025-08-06T14:22:00.584832","MEAN_MOTION":15.02547849,"ECCENTRICITY":0.00011433,"INCLINATION":43.003,"RA_OF_ASC_NODE":55.1735,"ARG_OF_PERICENTER":278.9619,"MEAN_ANOMALY":81.1094,"EPHEMERIS_TYPE":0,"CLASSIFICATION_TYPE":"U","NORAD_CAT_ID":55449,"ELEMENT_SET_NO":999,"REV_AT_EPOCH":13933,"BSTAR":4.8183963e-5,"MEAN_MOTION_DOT":4.48e-6,"MEAN_MOTION_DDOT":0},{"OBJECT_NAME":"STARLINK-5686","OBJECT_ID":"2023-015B","EPOCH":"2025-08-06T12:51:04.271904","MEAN_MOTION":15.0255157,"ECCENTRICITY":0.0001322,"INCLINATION":43.0034,"RA_OF_ASC_NODE":55.561,"ARG_OF_PERICENTER":268.8401,"MEAN_ANOMALY":91.229,"EPHEMERIS_TYPE":0,"CLASSIFICATION_TYPE":"U","NORAD_CAT_ID":55450,"ELEMENT_SET_NO":999,"REV_AT_EPOCH":13932,"BSTAR":5.3395261e-5,"MEAN_MOTION_DOT":5.18e-6,"MEAN_MOTION_DDOT":0},{"OBJECT_NAME":"STARLINK-5656","OBJECT_ID":"2023-015C","EPOCH":"2025-08-06T14:17:12.771744","MEAN_MOTION":15.02533416,"ECCENTRICITY":0.00014446,"INCLINATION":43.0052,"RA_OF_ASC_NODE":55.1496,"ARG_OF_PERICENTER":265.3188,"MEAN_ANOMALY":94.7489,"EPHEMERIS_TYPE":0,"CLASSIFICATION_TYPE":"U","NORAD_CAT_ID":55451,"ELEMENT_SET_NO":999,"REV_AT_EPOCH":13839,"BSTAR":-3.413034e-6,"MEAN_MOTION_DOT":-2.5e-6,"MEAN_MOTION_DDOT":0},{"OBJECT_NAME":"STARLINK-5683","OBJECT_ID":"2023-015D","EPOCH":"2025-08-06T20:33:43.959456","MEAN_MOTION":15.02532146,"ECCENTRICITY":0.00011998,"INCLINATION":43.0039,"RA_OF_ASC_NODE":53.6705,"ARG_OF_PERICENTER":272.9618,"MEAN_ANOMALY":87.1087,"EPHEMERIS_TYPE":0,"CLASSIFICATION_TYPE":"U","NORAD_CAT_ID":55452,"ELEMENT_SET_NO":999,"REV_AT_EPOCH":13843,"BSTAR":9.476376e-6,"MEAN_MOTION_DOT":-7.6e-7,"MEAN_MOTION_DDOT":0},{"OBJECT_NAME":"STARLINK-5684","OBJECT_ID":"2023-015E","EPOCH":"2025-08-06T20:28:56.239680","MEAN_MOTION":15.0253375,"ECCENTRICITY":0.00013532,"INCLINATION":43.0037,"RA_OF_ASC_NODE":53.6466,"ARG_OF_PERICENTER":267.3958,"MEAN_ANOMALY":92.6729,"EPHEMERIS_TYPE":0,"CLASSIFICATION_TYPE":"U","NORAD_CAT_ID":55453,"ELEMENT_SET_NO":999,"REV_AT_EPOCH":13843,"BSTAR":-4.000934e-6,"MEAN_MOTION_DOT":-2.58e-6,"MEAN_MOTION_DDOT":0},{"OBJECT_NAME":"STARLINK-5636","OBJECT_ID":"2023-015F","EPOCH":"2025-08-06T20:19:20.336160","MEAN_MOTION":15.02537613,"ECCENTRICITY":0.000121,"INCLINATION":43.0044,"RA_OF_ASC_NODE":53.5858,"ARG_OF_PERICENTER":271.6014,"MEAN_ANOMALY":88.469,"EPHEMERIS_TYPE":0,"CLASSIFICATION_TYPE":"U","NORAD_CAT_ID":55454,"ELEMENT_SET_NO":999,"REV_AT_EPOCH":13843,"BSTAR":5.6189456e-5,"MEAN_MOTION_DOT":5.55e-6,"MEAN_MOTION_DDOT":0},{"OBJECT_NAME":"STARLINK-5680","OBJECT_ID":"2023-015G","EPOCH":"2025-08-06T14:15:36.452160","MEAN_MOTION":15.02528359,"ECCENTRICITY":0.00012022,"INCLINATION":43.004,"RA_OF_ASC_NODE":55.1409,"ARG_OF_PERICENTER":273.0921,"MEAN_ANOMALY":86.9784,"EPHEMERIS_TYPE":0,"CLASSIFICATION_TYPE":"U","NORAD_CAT_ID":55455,"ELEMENT_SET_NO":999,"REV_AT_EPOCH":13839,"BSTAR":0.00010522097,"MEAN_MOTION_DOT":1.218e-5,"MEAN_MOTION_DDOT":0}]
